start=new Date('2022-09-07T00:00:00.000Z').valueOf();
sats=[{"TLE_LINE2":"2 46048  53.0541 102.4154 0001479  88.5383 271.5776 15.06381739116090","LAUNCH_DATE":"2020-08-07","EPOCH":"2022-09-06T18:27:20.124288","APOAPSIS":"548.294","RA_OF_ASC_NODE":"102.4154","MEAN_MOTION_DDOT":"0.0000000000000","ARG_OF_PERICENTER":"88.5383","REV_AT_EPOCH":"11609","SITE":"AFETR","PERIOD":"95.593","CENTER_NAME":"EARTH","OBJECT_NAME":"STARLINK-1527","MEAN_MOTION":"15.06381739","ECCENTRICITY":"0.00014790","ELEMENT_SET_NO":"999","SEMIMAJOR_AXIS":"6925.405","TIME_SYSTEM":"UTC","MEAN_ELEMENT_THEORY":"SGP4","NORAD_CAT_ID":"46048","INCLINATION":"53.0541","GP_ID":"211917776","BSTAR":"-0.00005486900000","EPHEMERIS_TYPE":"0","MEAN_ANOMALY":"271.5776","REF_FRAME":"TEME","DECAY_DATE":null,"MEAN_MOTION_DOT":"-0.00001098","OBJECT_ID":"2020-055X","PERIAPSIS":"546.245","TLE_LINE1":"1 46048U 20055X   22249.76898292 -.00001098  00000-0 -54869-4 0  9990","OBJECT_TYPE":"PAYLOAD","COUNTRY_CODE":"US","FILE":"3561419","CLASSIFICATION_TYPE":"U","RCS_SIZE":"LARGE"},{"MEAN_ANOMALY":"285.2630","GP_ID":"211918528","BSTAR":"-0.00008854700000","EPHEMERIS_TYPE":"0","DECAY_DATE":null,"MEAN_MOTION_DOT":"-0.00001600","OBJECT_ID":"2020-055Y","REF_FRAME":"TEME","COUNTRY_CODE":"US","PERIAPSIS":"546.280","TLE_LINE1":"1 46049U 20055Y   22249.83164052 -.00001600  00000-0 -88547-4 0  9998","OBJECT_TYPE":"PAYLOAD","FILE":"3561419","CLASSIFICATION_TYPE":"U","RCS_SIZE":"LARGE","APOAPSIS":"548.231","TLE_LINE2":"2 46049  53.0554 102.1348 0001409  74.8514 285.2630 15.06386361116136","EPOCH":"2022-09-06T19:57:33.740928","LAUNCH_DATE":"2020-08-07","MEAN_MOTION_DDOT":"0.0000000000000","REV_AT_EPOCH":"11613","ARG_OF_PERICENTER":"74.8514","CENTER_NAME":"EARTH","SITE":"AFETR","PERIOD":"95.593","RA_OF_ASC_NODE":"102.1348","MEAN_MOTION":"15.06386361","ECCENTRICITY":"0.00014090","OBJECT_NAME":"STARLINK-1530","MEAN_ELEMENT_THEORY":"SGP4","NORAD_CAT_ID":"46049","INCLINATION":"53.0554","ELEMENT_SET_NO":"999","SEMIMAJOR_AXIS":"6925.390","TIME_SYSTEM":"UTC"},{"EPOCH":"2022-09-06T19:15:05.918976","LAUNCH_DATE":"2020-08-07","TLE_LINE2":"2 46051  53.0549 102.2567 0001443  77.4053 282.7097 15.06387766116131","APOAPSIS":"548.250","RA_OF_ASC_NODE":"102.2567","CENTER_NAME":"EARTH","SITE":"AFETR","PERIOD":"95.593","REV_AT_EPOCH":"11613","ARG_OF_PERICENTER":"77.4053","MEAN_MOTION_DDOT":"0.0000000000000","OBJECT_NAME":"STARLINK-1540","ECCENTRICITY":"0.00014430","MEAN_MOTION":"15.06387766","TIME_SYSTEM":"UTC","SEMIMAJOR_AXIS":"6925.386","ELEMENT_SET_NO":"999","INCLINATION":"53.0549","NORAD_CAT_ID":"46051","MEAN_ELEMENT_THEORY":"SGP4","EPHEMERIS_TYPE":"0","BSTAR":"-0.00014463000000","GP_ID":"211918779","MEAN_ANOMALY":"282.7097","REF_FRAME":"TEME","OBJECT_ID":"2020-055AA","MEAN_MOTION_DOT":"-0.00002434","DECAY_DATE":null,"OBJECT_TYPE":"PAYLOAD","TLE_LINE1":"1 46051U 20055AA  22249.80215184 -.00002434  00000-0 -14463-3 0  9992","PERIAPSIS":"546.252","COUNTRY_CODE":"US","RCS_SIZE":"LARGE","CLASSIFICATION_TYPE":"U","FILE":"3561419"},{"CLASSIFICATION_TYPE":"U","FILE":"3561419","RCS_SIZE":"LARGE","COUNTRY_CODE":"US","TLE_LINE1":"1 46052U 20055AB  22249.78739796 -.00000881  00000-0 -40227-4 0  9992","PERIAPSIS":"546.250","OBJECT_TYPE":"PAYLOAD","DECAY_DATE":null,"OBJECT_ID":"2020-055AB","MEAN_MOTION_DOT":"-0.00000881","REF_FRAME":"TEME","MEAN_ANOMALY":"276.1524","BSTAR":"-0.00004022700000","GP_ID":"211918028","EPHEMERIS_TYPE":"0","INCLINATION":"53.0571","NORAD_CAT_ID":"46052","MEAN_ELEMENT_THEORY":"SGP4","ELEMENT_SET_NO":"999","SEMIMAJOR_AXIS":"6925.338","TIME_SYSTEM":"UTC","ECCENTRICITY":"0.00013760","MEAN_MOTION":"15.06403443","OBJECT_NAME":"STARLINK-1541","MEAN_MOTION_DDOT":"0.0000000000000","CENTER_NAME":"EARTH","SITE":"AFETR","PERIOD":"95.592","REV_AT_EPOCH":"11609","ARG_OF_PERICENTER":"83.9622","RA_OF_ASC_NODE":"102.3223","APOAPSIS":"548.156","TLE_LINE2":"2 46052  53.0571 102.3223 0001376  83.9622 276.1524 15.06403443116094","EPOCH":"2022-09-06T18:53:51.183744","LAUNCH_DATE":"2020-08-07"},{"TIME_SYSTEM":"UTC","ELEMENT_SET_NO":"999","SEMIMAJOR_AXIS":"6925.394","INCLINATION":"53.0556","NORAD_CAT_ID":"46053","MEAN_ELEMENT_THEORY":"SGP4","OBJECT_NAME":"STARLINK-1543","ECCENTRICITY":"0.00013450","MEAN_MOTION":"15.06385073","RA_OF_ASC_NODE":"102.3160","SITE":"AFETR","CENTER_NAME":"EARTH","PERIOD":"95.593","ARG_OF_PERICENTER":"89.3879","REV_AT_EPOCH":"11612","MEAN_MOTION_DDOT":"0.0000000000000","LAUNCH_DATE":"2020-08-07","EPOCH":"2022-09-06T18:59:10.663296","TLE_LINE2":"2 46053  53.0556 102.3160 0001345  89.3879 270.7264 15.06385073116121","APOAPSIS":"548.191","RCS_SIZE":"LARGE","CLASSIFICATION_TYPE":"U","FILE":"3561419","OBJECT_TYPE":"PAYLOAD","TLE_LINE1":"1 46053U 20055AC  22249.79109564 -.00002071  00000-0 -12024-3 0  9994","PERIAPSIS":"546.328","COUNTRY_CODE":"US","REF_FRAME":"TEME","OBJECT_ID":"2020-055AC","MEAN_MOTION_DOT":"-0.00002071","DECAY_DATE":null,"EPHEMERIS_TYPE":"0","BSTAR":"-0.00012024000000","GP_ID":"211918276","MEAN_ANOMALY":"270.7264"},{"MEAN_MOTION":"15.06382633","ECCENTRICITY":"0.00014110","OBJECT_NAME":"STARLINK-1548","NORAD_CAT_ID":"46054","MEAN_ELEMENT_THEORY":"SGP4","INCLINATION":"53.0550","TIME_SYSTEM":"UTC","ELEMENT_SET_NO":"999","SEMIMAJOR_AXIS":"6925.402","APOAPSIS":"548.244","LAUNCH_DATE":"2020-08-07","EPOCH":"2022-09-06T19:09:47.763072","TLE_LINE2":"2 46054  53.0550 102.2853 0001411 102.0246 258.0901 15.06382633116125","ARG_OF_PERICENTER":"102.0246","REV_AT_EPOCH":"11612","PERIOD":"95.593","SITE":"AFETR","CENTER_NAME":"EARTH","MEAN_MOTION_DDOT":"0.0000000000000","RA_OF_ASC_NODE":"102.2853","COUNTRY_CODE":"US","OBJECT_TYPE":"PAYLOAD","PERIAPSIS":"546.290","TLE_LINE1":"1 46054U 20055AD  22249.79846948 -.00002633  00000-0 -15798-3 0  9994","RCS_SIZE":"LARGE","FILE":"3561419","CLASSIFICATION_TYPE":"U","MEAN_ANOMALY":"258.0901","EPHEMERIS_TYPE":"0","GP_ID":"211919028","BSTAR":"-0.00015798000000","MEAN_MOTION_DOT":"-0.00002633","OBJECT_ID":"2020-055AD","DECAY_DATE":null,"REF_FRAME":"TEME"},{"REF_FRAME":"TEME","DECAY_DATE":null,"MEAN_MOTION_DOT":"-0.00002066","OBJECT_ID":"2020-055AE","GP_ID":"211919279","BSTAR":"-0.00011987000000","EPHEMERIS_TYPE":"0","MEAN_ANOMALY":"283.4021","FILE":"3561419","CLASSIFICATION_TYPE":"U","RCS_SIZE":"LARGE","PERIAPSIS":"545.905","TLE_LINE1":"1 46055U 20055AE  22249.78372700 -.00002066  00000-0 -11987-3 0  9990","OBJECT_TYPE":"PAYLOAD","COUNTRY_CODE":"US","RA_OF_ASC_NODE":"102.3348","MEAN_MOTION_DDOT":"0.0000000000000","ARG_OF_PERICENTER":"76.7186","REV_AT_EPOCH":"11612","CENTER_NAME":"EARTH","SITE":"AFETR","PERIOD":"95.593","TLE_LINE2":"2 46055  53.0527 102.3348 0001953  76.7186 283.4021 15.06385564116122","LAUNCH_DATE":"2020-08-07","EPOCH":"2022-09-06T18:48:34.012800","APOAPSIS":"548.610","SEMIMAJOR_AXIS":"6925.393","ELEMENT_SET_NO":"999","TIME_SYSTEM":"UTC","MEAN_ELEMENT_THEORY":"SGP4","NORAD_CAT_ID":"46055","INCLINATION":"53.0527","OBJECT_NAME":"STARLINK-1554","MEAN_MOTION":"15.06385564","ECCENTRICITY":"0.00019530"},{"INCLINATION":"53.0548","NORAD_CAT_ID":"46056","MEAN_ELEMENT_THEORY":"SGP4","SEMIMAJOR_AXIS":"6925.392","ELEMENT_SET_NO":"999","TIME_SYSTEM":"UTC","ECCENTRICITY":"0.00016500","MEAN_MOTION":"15.06385775","OBJECT_NAME":"STARLINK-1561","MEAN_MOTION_DDOT":"0.0000000000000","PERIOD":"95.593","SITE":"AFETR","CENTER_NAME":"EARTH","REV_AT_EPOCH":"11613","ARG_OF_PERICENTER":"69.9739","RA_OF_ASC_NODE":"102.2385","APOAPSIS":"548.400","TLE_LINE2":"2 46056  53.0548 102.2385 0001650  69.9739 290.1427 15.06385775116138","EPOCH":"2022-09-06T19:19:02.963424","LAUNCH_DATE":"2020-08-07","CLASSIFICATION_TYPE":"U","FILE":"3561419","RCS_SIZE":"LARGE","COUNTRY_CODE":"US","TLE_LINE1":"1 46056U 20055AF  22249.80489541 -.00002981  00000-0 -18138-3 0  9997","PERIAPSIS":"546.114","OBJECT_TYPE":"PAYLOAD","DECAY_DATE":null,"OBJECT_ID":"2020-055AF","MEAN_MOTION_DOT":"-0.00002981","REF_FRAME":"TEME","MEAN_ANOMALY":"290.1427","BSTAR":"-0.00018138000000","GP_ID":"211917530","EPHEMERIS_TYPE":"0"},{"EPHEMERIS_TYPE":"0","BSTAR":"-0.00013380000000","GP_ID":"211917777","MEAN_ANOMALY":"262.1412","REF_FRAME":"TEME","OBJECT_ID":"2020-055AH","MEAN_MOTION_DOT":"-0.00002273","DECAY_DATE":null,"OBJECT_TYPE":"PAYLOAD","TLE_LINE1":"1 46058U 20055AH  22249.81689359 -.00002273  00000-0 -13380-3 0  9997","PERIAPSIS":"546.326","COUNTRY_CODE":"US","RCS_SIZE":"LARGE","CLASSIFICATION_TYPE":"U","FILE":"3561419","LAUNCH_DATE":"2020-08-07","EPOCH":"2022-09-06T19:36:19.606176","TLE_LINE2":"2 46058  53.0549 102.1858 0001319  97.9726 262.1412 15.06391675116122","APOAPSIS":"548.153","RA_OF_ASC_NODE":"102.1858","PERIOD":"95.593","SITE":"AFETR","CENTER_NAME":"EARTH","ARG_OF_PERICENTER":"97.9726","REV_AT_EPOCH":"11612","MEAN_MOTION_DDOT":"0.0000000000000","OBJECT_NAME":"STARLINK-1564","ECCENTRICITY":"0.00013190","MEAN_MOTION":"15.06391675","TIME_SYSTEM":"UTC","SEMIMAJOR_AXIS":"6925.374","ELEMENT_SET_NO":"999","INCLINATION":"53.0549","NORAD_CAT_ID":"46058","MEAN_ELEMENT_THEORY":"SGP4"},{"ELEMENT_SET_NO":"999","SEMIMAJOR_AXIS":"6925.400","TIME_SYSTEM":"UTC","INCLINATION":"53.0552","MEAN_ELEMENT_THEORY":"SGP4","NORAD_CAT_ID":"46059","OBJECT_NAME":"STARLINK-1570","ECCENTRICITY":"0.00014530","MEAN_MOTION":"15.06383155","RA_OF_ASC_NODE":"102.1635","MEAN_MOTION_DDOT":"0.0000000000000","SITE":"AFETR","CENTER_NAME":"EARTH","PERIOD":"95.593","ARG_OF_PERICENTER":"90.7739","REV_AT_EPOCH":"11608","TLE_LINE2":"2 46059  53.0552 102.1635 0001453  90.7739 269.3416 15.06383155116086","LAUNCH_DATE":"2020-08-07","EPOCH":"2022-09-06T19:46:57.252000","APOAPSIS":"548.271","CLASSIFICATION_TYPE":"U","FILE":"3561419","RCS_SIZE":"LARGE","TLE_LINE1":"1 46059U 20055AJ  22249.82427375 -.00003215  00000-0 -19711-3 0  9998","PERIAPSIS":"546.259","OBJECT_TYPE":"PAYLOAD","COUNTRY_CODE":"US","REF_FRAME":"TEME","DECAY_DATE":null,"OBJECT_ID":"2020-055AJ","MEAN_MOTION_DOT":"-0.00003215","BSTAR":"-0.00019711000000","GP_ID":"211918529","EPHEMERIS_TYPE":"0","MEAN_ANOMALY":"269.3416"}];
